[{"OBJECT_NAME":"OBJECT C","OBJECT_ID":"2026-027C","EPOCH":"2026-03-09T23:08:13.765344","MEAN_MOTION":15.17820753,"ECCENTRICITY":0.00106742,"INCLINATION":97.491,"RA_OF_ASC_NODE":197.9834,"ARG_OF_PERICENTER":198.1811,"MEAN_ANOMALY":161.9042,"EPHEMERIS_TYPE":0,"CLASSIFICATION_TYPE":"U","NORAD_CAT_ID":67748,"ELEMENT_SET_NO":999,"REV_AT_EPOCH":390,"BSTAR":0.00040034515,"MEAN_MOTION_DOT":8.044e-5,"MEAN_MOTION_DDOT":0},{"OBJECT_NAME":"COSMOS 2251 DEB","OBJECT_ID":"1993-036AL","EPOCH":"2026-03-09T15:08:47.217120","MEAN_MOTION":15.1034549,"ECCENTRICITY":0.0030621,"INCLINATION":74.0303,"RA_OF_ASC_NODE":257.926,"ARG_OF_PERICENTER":317.2462,"MEAN_ANOMALY":110.0671,"EPHEMERIS_TYPE":0,"CLASSIFICATION_TYPE":"U","NORAD_CAT_ID":33795,"ELEMENT_SET_NO":999,"REV_AT_EPOCH":91331,"BSTAR":0.001367,"MEAN_MOTION_DOT":0.00022707,"MEAN_MOTION_DDOT":0}]
